NOAA 17 [-]             
1 27453U 02032A   22217.85983503  .00000031  00000+0  31831-4 0  9996
2 27453  98.6733 162.5494 0012739 124.8238 235.4142 14.25132393 45890
NOAA 18 [B]             
1 28654U 05018A   22218.06573615  .00000108  00000+0  82382-4 0  9992
2 28654  98.9468 288.4574 0014247 187.1009 172.9963 14.12761081887071
NOAA 19 [+]             
1 33591U 09005A   22218.14349224  .00000095  00000+0  76317-4 0  9990
2 33591  99.1450 253.3167 0014644  51.6257 308.6227 14.12595392695462
SUOMI NPP [+]           
1 37849U 11061A   22218.18217323  .00000022  00000+0  31224-4 0  9991
2 37849  98.7333 156.0479 0001230  88.7876  14.5516 14.19536602558241
NOAA 20 [+]             
1 43013U 17073A   22218.05569725  .00000009  00000+0  25091-4 0  9992
2 43013  98.7172 155.8381 0000775  74.5411 285.5850 14.19564297244268
CELESTIS-02             
1 25160U 98007D   22218.21956215 -.00000048  00000+0  36417-4 0  9991
2 25160 107.9881   6.9494 0061826  23.4846  47.0361 14.21637779270155
CELESTIS-03             
1 26034U 99070C   22218.15775729  .00009475  00000+0  44025-3 0  9990
2 26034  98.3121 229.1115 0008258 327.5266  32.5458 15.20221305228635
O3B FM5                 
1 39188U 13031A   22217.85014456 -.00000013  00000+0  00000+0 0  9997
2 39188   0.0540  23.0567 0002570 113.2853 223.6784  5.00115217166524
O3B FM4                 
1 39189U 13031B   22217.50643539 -.00000013  00000+0  00000+0 0  9990
2 39189   0.0564 353.6925 0002530 141.6959 224.6321  5.00115755166423
O3B FM2                 
1 39190U 13031C   22213.59836551 -.00000015  00000+0  00000+0 0  9997
2 39190   0.0595 350.0268 0001058 132.1970 237.7855  4.99476808166289
O3B PFM                 
1 39191U 13031D   22217.62413700 -.00000013  00000+0  00000+0 0  9991
2 39191   0.0516  13.5752 0002649 120.4933 225.9534  5.00115655166059
O3B FM3                 
1 40079U 14038A   22217.07921245 -.00000012  00000+0  00000+0 0  9992
2 40079   0.0548   1.6823 0005053 128.4257 229.9365  5.00115350142408
O3B FM7                 
1 40080U 14038B   22217.62495623 -.00000013  00000+0  00000+0 0  9992
2 40080   0.0588 359.4873 0001060 170.9628 189.5521  5.00115400147261
O3B FM6                 
1 40081U 14038C   22217.05165876 -.00000012  00000+0  00000+0 0  9993
2 40081   0.0543   0.7476 0002694 134.4011 224.8732  5.00115347147181
O3B FM8                 
1 40082U 14038D   22217.70527995 -.00000013  00000+0  00000+0 0  9991
2 40082   0.0541 357.2417 0002686 134.0537 228.7279  5.00115617147331
O3B FM10                
1 40348U 14083A   22217.53140168 -.00000013  00000+0  00000+0 0  9990
2 40348   0.0487   8.6753 0002632 125.4082 225.9383  5.00115116139267
O3B FM11                
1 40349U 14083B   22217.54487777 -.00000013  00000+0  00000+0 0  9992
2 40349   0.0532  10.2996 0002255 138.1127 211.6014  5.00115363139288
O3B FM12                
1 40350U 14083C   22217.17229338 -.00000012  00000+0  00000+0 0  9999
2 40350   0.0528   9.4193 0002693 128.5055 222.0960  5.00115234139286
O3B FM9                 
1 40351U 14083D   22217.79890879 -.00000013  00000+0  00000+0 0  9993
2 40351   0.0542  11.0361 0002584 124.5273 224.4574  5.00115549139462
DIAMOND RED             
1 42783U 17036U   22217.83463596  .00005008  00000+0  18486-3 0  9991
2 42783  97.1964 256.9453 0011486 146.7871 213.4092 15.28137352284484
DIAMOND GREEN           
1 42785U 17036W   22218.09631835  .00005282  00000+0  19512-3 0  9990
2 42785  97.1969 257.2618 0011326 147.0180 213.1769 15.28089169284512
DIAMOND BLUE            
1 42786U 17036X   22217.57151576  .00004959  00000+0  18333-3 0  9992
2 42786  97.1967 256.7470 0011318 149.1663 211.0244 15.28093139284518
LEO VANTAGE 1           
1 43113U 18004C   22217.41949975  .00000918  00000+0  79773-4 0  9991
2 43113  99.2460 302.6645 0401691  44.3354 318.9277 14.54001770231354
O3B FM15                
1 43231U 18024A   22217.26518930 -.00000013  00000+0  00000+0 0  9999
2 43231   0.0453   7.7757 0002884 129.1562 223.0908  5.00115953 80380
O3B FM16                
1 43232U 18024B   22217.51845752 -.00000013  00000+0  00000+0 0  9993
2 43232   0.0412   7.9621 0002854 129.5452 222.5149  5.00115830 80326
O3B FM14                
1 43233U 18024C   22217.55804356 -.00000013  00000+0  00000+0 0  9993
2 43233   0.0397   6.9710 0002672 131.6359 221.4135  5.00115246 80330
O3B FM13                
1 43234U 18024D   22217.61153511 -.00000013  00000+0  00000+0 0  9991
2 43234   0.0457  35.4885 0003531 111.2310 213.3029  5.00114936 80454
O3B FM20                
1 44112U 19020A   22217.58476856 -.00000013  00000+0  00000+0 0  9990
2 44112   0.0487   7.8697 0002905 136.8191 215.3306  5.00115376 60953
O3B FM19                
1 44113U 19020B   22210.81524545 -.00000020  00000+0  00000+0 0  9997
2 44113   0.0551  23.5318 0001731 107.7214 228.7598  5.00115059 60689
O3B FM17                
1 44114U 19020C   22217.49219672 -.00000013  00000+0  00000+0 0  9993
2 44114   0.0430 343.8558 0002988 154.4745 221.6926  5.00115504 60900
O3B FM18                
1 44115U 19020D   22216.43928011 -.00000012  00000+0  00000+0 0  9990
2 44115   0.0488   8.3353 0002877 125.2772 226.4115  5.00115700 60960
SALSAT                  
1 46495U 20068K   22217.64255567  .00001267  00000+0  94250-4 0  9997
2 46495  97.7314 158.9679 0018037 109.3261 250.9917 15.04679731101588
ISS (ZARYA)             
1 25544U 98067A   22218.10817979  .00004822  00000+0  91638-4 0  9993
2 25544  51.6435  89.2946 0005294  87.3382  29.1974 15.50244769352921
AEROCUBE 12A            
1 43556U 18046C   22217.49452826  .00010999  00000+0  27299-3 0  9995
2 43556  51.6374 304.5102 0006010 218.6361 141.4194 15.40850346226875
AEROCUBE 12B            
1 43557U 18046D   22217.62817621  .00008003  00000+0  21674-3 0  9993
2 43557  51.6384 309.0775 0006320 211.9052 148.1550 15.38581028226774
LEMUR-2-VU              
1 43558U 18046E   22217.61562974  .00019428  00000+0  35301-3 0  9996
2 43558  51.6370 283.2828 0005344 232.1720 127.8786 15.49546402227162
LEMUR-2-ALEXANDER       
1 43559U 18046F   22217.48122760  .00024114  00000+0  41509-3 0  9992
2 43559  51.6370 281.6670 0004801 249.1639 110.8837 15.50939715226954
LEMUR-2-YUASA           
1 43560U 18046G   22218.15830202  .00020291  00000+0  36132-3 0  9994
2 43560  51.6381 280.9120 0005313 258.4782 101.5611 15.50090395227243
LEMUR-2-TOMHENDERSON    
1 43561U 18046H   22217.49865047  .00019144  00000+0  37129-3 0  9998
2 43561  51.6390 287.7115 0005371 248.4513 111.5903 15.47680366226656
ISS DEB (SEDA-AP)       
1 43870U 98067PU  22217.70055484  .00104951  15450-4  28454-3 0  9994
2 43870  51.6287 332.0940 0002584 341.4120  18.6793 15.94121985206768
STPSAT-4                
1 45043U 98067QY  22217.68880196  .00089682  00000+0  38934-3 0  9998
2 45043  51.6334  41.6220 0001020   3.0220 357.0789 15.84084701143280
SORTIE                  
1 45264U 98067RH  22217.56627578  .00134536  00000+0  45252-3 0  9993
2 45264  51.6375  35.5966 0002612 344.7588  15.3338 15.89146034140025
ICS-EF (ISS DEB)        
1 45265U 98067RJ  22217.68006777  .00016979  00000+0  17773-3 0  9996
2 45265  51.6370  63.4053 0003801  32.3662 327.7566 15.64547850139342
RED-EYE 2 (MERLOT)      
1 45800U 98067RM  22217.73202041  .00047923  00000+0  32542-3 0  9993
2 45800  51.6374  51.8036 0000949 110.8430 249.2671 15.74450661121360
RED-EYE 3 (CABERNET)    
1 45809U 98067RN  22217.60864054  .00044655  00000+0  30411-3 0  9998
2 45809  51.6380  52.4845 0000846  91.0742 269.0354 15.74414413120321
ISS DEB                 
1 47853U 98067RZ  22217.71734249  .00005353  00000+0  86957-4 0  9992
2 47853  51.6415  84.7591 0002314 169.0784 191.0257 15.54475218 79575
MMSATS-1                
1 47976U 98067SJ  22217.92537038  .00014425  00000+0  17411-3 0  9996
2 47976  51.6407  76.1183 0002267 163.1338 304.9453 15.61015339 77989
CSS (TIANHE)            
1 48274U 21035A   22218.29556804  .00010721  00000+0  12505-3 0  9996
2 48274  41.4732 273.7697 0006179 355.5612  88.1922 15.61557026 72602
ISS DEB                 
1 48833U 98067SK  22217.86240255  .00039443  00000+0  33944-3 0  9990
2 48833  51.6357  71.3826 0002122 176.7032 183.3980 15.68902745 66905
RAMSAT                  
1 48850U 98067SL  22217.86294993  .00076793  00000+0  44128-3 0  9992
2 48850  51.6360  63.8651 0002829 227.7787 132.2974 15.78056957 65112
BD-28                   
1 48867U 98067SN  22215.78339577  .00128786  00000+0  51644-3 0  9998
2 48867  51.6260  70.0996 0002913 235.2454 124.8276 15.85592213 63590
ISS (NAUKA)             
1 49044U 21066A   22217.51921609  .00004736  00000+0  90182-4 0  9996
2 49044  51.6436  92.2135 0005333  84.5991 342.8326 15.50238112352837
FREGAT DEB              
1 49271U 11037PF  22217.69923232  .00054490  00000+0  25407+0 0  9993
2 49271  51.6337 100.3389 0875302 136.3581 230.9958 11.90996588 53040
BINAR-1                 
1 49272U 98067SR  22217.61042729  .00098364  00000+0  53006-3 0  9995
2 49272  51.6313  68.8797 0003437 171.7097 188.3961 15.79383659 47417
MAYA-3                  
1 49273U 98067SS  22215.96002646  .06228653  12264-4  79627-3 0  9995
2 49273  51.6125  65.8665 0012195 274.8712  85.0920 16.34785799 47309
MAYA-4                  
1 49274U 98067ST  22217.98568631  .02055531  11854-4  98993-3 0  9991
2 49274  51.6201  56.1793 0013116 277.2881  82.6646 16.20307341 47618
CUAVA-1                 
1 49275U 98067SU  22218.06988486  .00267851  38102-4  78790-3 0  9992
2 49275  51.6303  61.1777 0005626 234.9438 211.9233 15.92177891 47505
CAPSAT                  
1 49276U 98067SV  22217.65037352  .00126861  00000+0  59122-3 0  9998
2 49276  51.6348  68.4309 0004004 193.7808 166.3086 15.82430604 46486
PR-CUNAR 2              
1 49277U 98067SW  22217.85794255  .00234238  31336-4  73941-3 0  9997
2 49277  51.6205  63.6197 0004986 224.2717 135.7891 15.90853500 46532
